[{"OBJECT_NAME":"STARLINK-30801","OBJECT_ID":"2023-167K","EPOCH":"2026-03-09T04:30:36.059904","MEAN_MOTION":15.27573765,"ECCENTRICITY":0.00021386,"INCLINATION":42.9984,"RA_OF_ASC_NODE":146.6323,"ARG_OF_PERICENTER":288.9169,"MEAN_ANOMALY":71.145,"EPHEMERIS_TYPE":0,"CLASSIFICATION_TYPE":"U","NORAD_CAT_ID":58184,"ELEMENT_SET_NO":999,"REV_AT_EPOCH":13090,"BSTAR":1.1155226e-5,"MEAN_MOTION_DOT":4.5e-7,"MEAN_MOTION_DDOT":0},{"OBJECT_NAME":"TSX-5","OBJECT_ID":"2000-030A","EPOCH":"2026-03-09T21:12:25.441056","MEAN_MOTION":14.57965705,"ECCENTRICITY":0.04447223,"INCLINATION":68.9141,"RA_OF_ASC_NODE":228.535,"ARG_OF_PERICENTER":180.8093,"MEAN_ANOMALY":179.2379,"EPHEMERIS_TYPE":0,"CLASSIFICATION_TYPE":"U","NORAD_CAT_ID":26374,"ELEMENT_SET_NO":999,"REV_AT_EPOCH":30806,"BSTAR":0.0016357838,"MEAN_MOTION_DOT":0.00031184,"MEAN_MOTION_DDOT":0}]
